{"type": "FeatureCollection", "features": [ {"type": "Feature", "properties": {"norad_id": 32171, "name": "FENGYUN 1C DEB", "group": "fengyun-1c-debris", "lat": 68.76944064811227, "lon": -140.4941537539927, "alt_km": 1052.9318645861495, "timestamp": "2025-12-21T20:41:08.245797+00:00", "meta": {"OBJECT_NAME": "FENGYUN 1C DEB", "OBJECT_ID": "1999-025CTR", "EPOCH": "2025-12-19T23:42:54.324000", "MEAN_MOTION": 13.42626137, "ECCENTRICITY": 0.0488961, "INCLINATION": 102.8047, "RA_OF_ASC_NODE": 252.9563, "ARG_OF_PERICENTER": 350.4446, "MEAN_ANOMALY": 24.1541, "EPHEMERIS_TYPE": 0, "CLASSIFICATION_TYPE": "U", "NORAD_CAT_ID": 32171, "ELEMENT_SET_NO": 999, "REV_AT_EPOCH": 60713, "BSTAR": 0.003107, "MEAN_MOTION_DOT": 3.53e-05, "MEAN_MOTION_DDOT": 0}, "tle": {"line1": "1 32171U 99025CTR 25353.98812875  .00003530  00000+0  31070-2 0  9998", "line2": "2 32171 102.8047 252.9563 0488961 350.4446  24.1541 13.42626137607131"}}, "geometry": {"type": "Point", "coordinates": [-140.4941537539927, 68.76944064811227]}}, {"type": "Feature", "properties": {"norad_id": 32174, "name": "FENGYUN 1C DEB", "group": "fengyun-1c-debris", "lat": -60.457294063891894, "lon": -137.76301166544513, "alt_km": 738.5374506549942, "timestamp": "2025-12-21T20:41:08.245807+00:00", "meta": {"OBJECT_NAME": "FENGYUN 1C DEB", "OBJECT_ID": "1999-025CTU", "EPOCH": "2025-12-14T21:34:34.410432", "MEAN_MOTION": 14.17923145, "ECCENTRICITY": 0.01505704, "INCLINATION": 98.6008, "RA_OF_ASC_NODE": 50.9784, "ARG_OF_PERICENTER": 239.665, "MEAN_ANOMALY": 118.9562, "EPHEMERIS_TYPE": 0, "CLASSIFICATION_TYPE": "U", "NORAD_CAT_ID": 32174, "ELEMENT_SET_NO": 999, "REV_AT_EPOCH": 64136, "BSTAR": 0.00031806491, "MEAN_MOTION_DOT": 6.84e-06, "MEAN_MOTION_DDOT": 0}, "tle": {"line1": "1 32174U 99025CTU 25348.89900938  .00000684  00000+0  31806-3 0  9998", "line2": "2 32174  98.6008  50.9784 0150570 239.6650 118.9562 14.17923145641361"}}, "geometry": {"type": "Point", "coordinates": [-137.76301166544513, -60.457294063891894]}}, {"type": "Feature", "properties": {"norad_id": 32175, "name": "FENGYUN 1C DEB", "group": "fengyun-1c-debris", "lat": 80.40663007629794, "lon": -129.20056866826945, "alt_km": 1004.6800361917876, "timestamp": "2025-12-21T20:41:08.245816+00:00", "meta": {"OBJECT_NAME": "FENGYUN 1C DEB", "OBJECT_ID": "1999-025CTV", "EPOCH": "2025-12-21T04:44:24.927072", "MEAN_MOTION": 13.94865191, "ECCENTRICITY": 0.01517764, "INCLINATION": 98.823, "RA_OF_ASC_NODE": 343.3939, "ARG_OF_PERICENTER": 299.9776, "MEAN_ANOMALY": 58.6394, "EPHEMERIS_TYPE": 0, "CLASSIFICATION_TYPE": "U", "NORAD_CAT_ID": 32175, "ELEMENT_SET_NO": 999, "REV_AT_EPOCH": 59958, "BSTAR": 0.0018927706, "MEAN_MOTION_DOT": 2.755e-05, "MEAN_MOTION_DDOT": 0}, "tle": {"line1": "1 32175U 99025CTV 25355.19751073  .00002755  00000+0  18928-2 0  9994", "line2": "2 32175  98.8230 343.3939 0151776 299.9776  58.6394 13.94865191599588"}}, "geometry": {"type": "Point", "coordinates": [-129.20056866826945, 80.40663007629794]}}, {"type": "Feature", "properties": {"norad_id": 32177, "name": "FENGYUN 1C DEB", "group": "fengyun-1c-debris", "lat": 78.51069511688416, "lon": -45.66359473139898, "alt_km": 682.253005735658, "timestamp": "2025-12-21T20:41:08.245825+00:00", "meta": {"OBJECT_NAME": "FENGYUN 1C DEB", "OBJECT_ID": "1999-025CTX", "EPOCH": "2025-12-19T07:17:54.949344", "MEAN_MOTION": 14.56293661, "ECCENTRICITY": 0.0051637, "INCLINATION": 99.0437, "RA_OF_ASC_NODE": 3.1558, "ARG_OF_PERICENTER": 25.4129, "MEAN_ANOMALY": 334.9588, "EPHEMERIS_TYPE": 0, "CLASSIFICATION_TYPE": "U", "NORAD_CAT_ID": 32177, "ELEMENT_SET_NO": 999, "REV_AT_EPOCH": 71134, "BSTAR": 0.00096839, "MEAN_MOTION_DOT": 4.312e-05, "MEAN_MOTION_DDOT": 0}, "tle": {"line1": "1 32177U 99025CTX 25353.30410821  .00004312  00000+0  96839-3 0  9999", "line2": "2 32177  99.0437   3.1558 0051637  25.4129 334.9588 14.56293661711340"}}, "geometry": {"type": "Point", "coordinates": [-45.66359473139898, 78.51069511688416]}}, {"type": "Feature", "properties": {"norad_id": 32178, "name": "FENGYUN 1C DEB", "group": "fengyun-1c-debris", "lat": -71.78314939674149, "lon": 32.384608694717734, "alt_km": 756.1348456169271, "timestamp": "2025-12-21T20:41:08.245834+00:00", "meta": {"OBJECT_NAME": "FENGYUN 1C DEB", "OBJECT_ID": "1999-025CTY", "EPOCH": "2025-12-19T06:35:46.322016", "MEAN_MOTION": 14.2302281, "ECCENTRICITY": 0.0094455, "INCLINATION": 100.3031, "RA_OF_ASC_NODE": 355.8088, "ARG_OF_PERICENTER": 305.4273, "MEAN_ANOMALY": 53.8108, "EPHEMERIS_TYPE": 0, "CLASSIFICATION_TYPE": "U", "NORAD_CAT_ID": 32178, "ELEMENT_SET_NO": 999, "REV_AT_EPOCH": 64096, "BSTAR": 0.00088752, "MEAN_MOTION_DOT": 2.036e-05, "MEAN_MOTION_DDOT": 0}, "tle": {"line1": "1 32178U 99025CTY 25353.27484169  .00002036  00000+0  88752-3 0  9998", "line2": "2 32178 100.3031 355.8088 0094455 305.4273  53.8108 14.23022810640962"}}, "geometry": {"type": "Point", "coordinates": [32.384608694717734, -71.78314939674149]}}, {"type": "Feature", "properties": {"norad_id": 32179, "name": "FENGYUN 1C DEB", "group": "fengyun-1c-debris", "lat": 24.700157482878947, "lon": 40.373490345533824, "alt_km": 959.9439338052216, "timestamp": "2025-12-21T20:41:08.245842+00:00", "meta": {"OBJECT_NAME": "FENGYUN 1C DEB", "OBJECT_ID": "1999-025CTZ", "EPOCH": "2025-12-18T14:36:04.499424", "MEAN_MOTION": 14.03685466, "ECCENTRICITY": 0.01456631, "INCLINATION": 98.9086, "RA_OF_ASC_NODE": 41.3221, "ARG_OF_PERICENTER": 173.6117, "MEAN_ANOMALY": 340.7705, "EPHEMERIS_TYPE": 0, "CLASSIFICATION_TYPE": "U", "NORAD_CAT_ID": 32179, "ELEMENT_SET_NO": 999, "REV_AT_EPOCH": 65810, "BSTAR": 0.00034833521, "MEAN_MOTION_DOT": 5.59e-06, "MEAN_MOTION_DDOT": 0}, "tle": {"line1": "1 32179U 99025CTZ 25352.60838541  .00000559  00000+0  34834-3 0  9992", "line2": "2 32179  98.9086  41.3221 0145663 173.6117 340.7705 14.03685466658107"}}, "geometry": {"type": "Point", "coordinates": [40.373490345533824, 24.700157482878947]}}, {"type": "Feature", "properties": {"norad_id": 32180, "name": "FENGYUN 1C DEB", "group": "fengyun-1c-debris", "lat": -30.79027156916424, "lon": 41.917115026961255, "alt_km": 1040.3994375863895, "timestamp": "2025-12-21T20:41:08.245851+00:00", "meta": {"OBJECT_NAME": "FENGYUN 1C DEB", "OBJECT_ID": "1999-025CUA", "EPOCH": "2025-12-20T21:22:48.640800", "MEAN_MOTION": 13.82329831, "ECCENTRICITY": 0.0136626, "INCLINATION": 99.5846, "RA_OF_ASC_NODE": 35.1513, "ARG_OF_PERICENTER": 188.9828, "MEAN_ANOMALY": 349.0664, "EPHEMERIS_TYPE": 0, "CLASSIFICATION_TYPE": "U", "NORAD_CAT_ID": 32180, "ELEMENT_SET_NO": 999, "REV_AT_EPOCH": 94380, "BSTAR": 0.0001015, "MEAN_MOTION_DOT": 7.1e-07, "MEAN_MOTION_DDOT": 0}, "tle": {"line1": "1 32180U 99025CUA 25354.89084075  .00000071  00000+0  10150-3 0  9996", "line2": "2 32180  99.5846  35.1513 0136626 188.9828 349.0664 13.82329831943809"}}, "geometry": {"type": "Point", "coordinates": [41.917115026961255, -30.79027156916424]}}, {"type": "Feature", "properties": {"norad_id": 32181, "name": "FENGYUN 1C DEB", "group": "fengyun-1c-debris", "lat": 25.01130658105662, "lon": -74.66337273494304, "alt_km": 710.3384261302654, "timestamp": "2025-12-21T20:41:08.245862+00:00", "meta": {"OBJECT_NAME": "FENGYUN 1C DEB", "OBJECT_ID": "1999-025CUB", "EPOCH": "2025-12-20T12:56:29.056416", "MEAN_MOTION": 14.56087605, "ECCENTRICITY": 0.0073361, "INCLINATION": 99.4725, "RA_OF_ASC_NODE": 99.3691, "ARG_OF_PERICENTER": 62.1828, "MEAN_ANOMALY": 2.0711, "EPHEMERIS_TYPE": 0, "CLASSIFICATION_TYPE": "U", "NORAD_CAT_ID": 32181, "ELEMENT_SET_NO": 999, "REV_AT_EPOCH": 96834, "BSTAR": 0.0005595, "MEAN_MOTION_DOT": 2.497e-05, "MEAN_MOTION_DDOT": 0}, "tle": {"line1": "1 32181U 99025CUB 25354.53922519  .00002497  00000+0  55950-3 0  9993", "line2": "2 32181  99.4725  99.3691 0073361  62.1828   2.0711 14.56087605968340"}}, "geometry": {"type": "Point", "coordinates": [-74.66337273494304, 25.01130658105662]}}, {"type": "Feature", "properties": {"norad_id": 32183, "name": "FENGYUN 1C DEB", "group": "fengyun-1c-debris", "lat": -75.76197134265593, "lon": -170.40193704900707, "alt_km": 888.6833221398274, "timestamp": "2025-12-21T20:41:08.245872+00:00", "meta": {"OBJECT_NAME": "FENGYUN 1C DEB", "OBJECT_ID": "1999-025CUD", "EPOCH": "2025-12-21T09:14:40.661376", "MEAN_MOTION": 14.101046, "ECCENTRICITY": 0.00424898, "INCLINATION": 98.7126, "RA_OF_ASC_NODE": 46.3163, "ARG_OF_PERICENTER": 36.8584, "MEAN_ANOMALY": 323.5495, "EPHEMERIS_TYPE": 0, "CLASSIFICATION_TYPE": "U", "NORAD_CAT_ID": 32183, "ELEMENT_SET_NO": 999, "REV_AT_EPOCH": 72886, "BSTAR": 0.0005355867, "MEAN_MOTION_DOT": 9.12e-06, "MEAN_MOTION_DDOT": 0}, "tle": {"line1": "1 32183U 99025CUD 25355.38519284  .00000912  00000+0  53559-3 0  9993", "line2": "2 32183  98.7126  46.3163 0042489  36.8584 323.5495 14.10104600728865"}}, "geometry": {"type": "Point", "coordinates": [-170.40193704900707, -75.76197134265593]}}, {"type": "Feature", "properties": {"norad_id": 32184, "name": "FENGYUN 1C DEB", "group": "fengyun-1c-debris", "lat": -1.2943426877482043, "lon": -43.92533449738335, "alt_km": 467.16566327035616, "timestamp": "2025-12-21T20:41:08.245881+00:00", "meta": {"OBJECT_NAME": "FENGYUN 1C DEB", "OBJECT_ID": "1999-025CUE", "EPOCH": "2025-12-20T20:35:03.061248", "MEAN_MOTION": 15.45001149, "ECCENTRICITY": 0.0069421, "INCLINATION": 98.1184, "RA_OF_ASC_NODE": 135.1374, "ARG_OF_PERICENTER": 319.1944, "MEAN_ANOMALY": 40.4116, "EPHEMERIS_TYPE": 0, "CLASSIFICATION_TYPE": "U", "NORAD_CAT_ID": 32184, "ELEMENT_SET_NO": 999, "REV_AT_EPOCH": 98529, "BSTAR": 0.0011445, "MEAN_MOTION_DOT": 0.00059382, "MEAN_MOTION_DDOT": 0}, "tle": {"line1": "1 32184U 99025CUE 25354.85767432  .00059382  00000+0  11445-2 0  9997", "line2": "2 32184  98.1184 135.1374 0069421 319.1944  40.4116 15.45001149985297"}}, "geometry": {"type": "Point", "coordinates": [-43.92533449738335, -1.2943426877482043]}}]}